NORAD_CAT_ID,OBJECT_NAME,OBJECT_TYPE,EPOCH,MEAN_MOTION,ECCENTRICITY,INCLINATION,RA_OF_ASC_NODE,ARG_OF_PERICENTER,MEAN_ANOMALY,BSTAR,MEAN_MOTION_DOT,MEAN_MOTION_DDOT,TLE_LINE0,TLE_LINE1,TLE_LINE2,SEMIMAJOR_AXIS,PERIOD,APOGEE,PERIGEE,DECAYED
50823.0,STARLINK-3334,PAYLOAD,2023-10-13 21:31:11,15.08852848,0.0001463,53.2146,149.6858,96.4848,263.631,0.0003808,5.78e-05,0.0,0 STARLINK-3334,1 50823U 22001W   23286.89665776  .00005780  00000-0  38080-3 0  9990,2 50823  53.2146 149.6858 0001463  96.4848 263.6310 15.08852848 99171,6917.841,95.437,540.718,538.694,0.0
50823.0,STARLINK-3334,PAYLOAD,2023-10-14 00:41:57,15.0885824,0.0001647,53.2143,149.0903,96.8658,263.2521,0.00046006,7.045e-05,0.0,0 STARLINK-3334,1 50823U 22001W   23287.02913551  .00007045  00000-0  46006-3 0  9996,2 50823  53.2143 149.0903 0001647  96.8658 263.2521 15.08858240 97912,6917.825,95.436,540.829,538.55,0.0
50823.0,STARLINK-3334,PAYLOAD,2023-10-14 21:21:58,15.08842021,0.0001398,53.2142,145.2267,78.4431,281.6718,8.4518e-05,1.057e-05,0.0,0 STARLINK-3334,1 50823U 22001W   23287.89025990  .00001057  00000-0  84518-4 0  9990,2 50823  53.2142 145.2267 0001398  78.4431 281.6718 15.08842021 99329,6917.874,95.437,540.706,538.772,0.0
50823.0,STARLINK-3334,PAYLOAD,2023-10-15 00:32:44,15.08843324,0.0001384,53.2145,144.6305,82.3616,277.7533,0.00012823,1.754e-05,0.0,0 STARLINK-3334,1 50823U 22001W   23288.02273923  .00001754  00000-0  12823-3 0  9990,2 50823  53.2145 144.6305 0001384  82.3616 277.7533 15.08843324 98060,6917.87,95.437,540.693,538.778,0.0
50823.0,STARLINK-3334,PAYLOAD,2023-10-15 21:12:45,15.0884151,0.0001352,53.2143,140.7642,82.2106,277.9039,0.0001419,1.971e-05,0.0,0 STARLINK-3334,1 50823U 22001W   23288.88386178  .00001971  00000-0  14190-3 0  9991,2 50823  53.2143 140.7642 0001352  82.2106 277.9039 15.08841510 98199,6917.876,95.437,540.676,538.805,0.0
50823.0,STARLINK-3334,PAYLOAD,2023-10-16 14:42:00,15.08838888,0.0001334,53.2139,137.4923,80.793,279.3213,0.00014626,2.041e-05,0.0,0 STARLINK-3334,1 50823U 22001W   23289.61250407  .00002041  00000-0  14626-3 0  9991,2 50823  53.2139 137.4923 0001334  80.7930 279.3213 15.08838888 98304,6917.884,95.438,540.672,538.826,0.0
50823.0,STARLINK-3334,PAYLOAD,2023-10-16 16:17:23,15.08837309,0.0001356,53.214,137.1958,78.5317,281.5828,0.00015311,2.149e-05,0.0,0 STARLINK-3334,1 50823U 22001W   23289.67874524  .00002149  00000-0  15311-3 0  9990,2 50823  53.2140 137.1958 0001356  78.5317 281.5828 15.08837309 99595,6917.889,95.438,540.692,538.816,0.0
50823.0,STARLINK-3334,PAYLOAD,2023-10-17 22:29:42,15.08844787,0.0001338,53.2134,131.5458,80.4796,279.6347,0.00013293,1.829e-05,0.0,0 STARLINK-3334,1 50823U 22001W   23290.93730204  .00001829  00000-0  13293-3 0  9998,2 50823  53.2134 131.5458 0001338  80.4796 279.6347 15.08844787 99787,6917.866,95.437,540.656,538.805,0.0
50823.0,STARLINK-3334,PAYLOAD,2023-10-18 15:58:59,15.08818585,0.0002724,53.2108,128.2732,75.4302,284.6992,0.00081577,0.00012711,0.0,0 STARLINK-3334,1 50823U 22001W   23291.66596075  .00012711  00000-0  81577-3 0  9997,2 50823  53.2108 128.2732 0002724  75.4302 284.6992 15.08818585 99894,6917.946,95.439,541.695,537.926,0.0
50823.0,STARLINK-3334,PAYLOAD,2023-10-18 22:20:30,15.08836925,0.0002861,53.2111,127.0836,76.6426,283.4884,0.00042259,6.443e-05,0.0,0 STARLINK-3334,1 50823U 22001W   23291.93091276  .00006443  00000-0  42259-3 0  9999,2 50823  53.2111 127.0836 0002861  76.6426 283.4884 15.08836925 98650,6917.89,95.438,541.734,537.776,0.0
50823.0,STARLINK-3334,PAYLOAD,2023-10-19 01:31:16,15.08847012,0.0001981,53.2133,126.4865,86.2392,273.8826,0.00018884,2.719e-05,0.0,0 STARLINK-3334,1 50823U 22001W   23292.06338305  .00002719  00000-0  18884-3 0  9990,2 50823  53.2133 126.4865 0001981  86.2392 273.8826 15.08847012 99952,6917.859,95.437,541.094,538.354,0.0
50823.0,STARLINK-3334,PAYLOAD,2023-10-19 12:38:58,15.08839124,0.0001402,53.2137,124.4079,79.1742,280.9407,6.0409e-05,6.74e-06,0.0,0 STARLINK-3334,1 50823U 22001W   23292.52706549  .00000674  00000-0  60409-4 0  9999,2 50823  53.2137 124.4079 0001402  79.1742 280.9407 15.08839124100029,6917.883,95.438,540.718,538.778,0.0
50823.0,STARLINK-3334,PAYLOAD,2023-10-19 19:00:30,15.08843141,0.0001141,53.2139,123.2198,78.659,281.453,0.00012734,1.74e-05,0.0,0 STARLINK-3334,1 50823U 22001W   23292.79202263  .00001740  00000-0  12734-3 0  9994,2 50823  53.2139 123.2198 0001141  78.6590 281.4530 15.08843141 98781,6917.871,95.437,540.525,538.946,0.0
50823.0,STARLINK-3334,PAYLOAD,2023-10-20 12:29:44,15.08852706,0.0001017,53.2145,119.9486,79.0466,281.0641,0.00018241,2.617e-05,0.0,0 STARLINK-3334,1 50823U 22001W   23293.52065580  .00002617  00000-0  18241-3 0  9998,2 50823  53.2145 119.9486 0001017  79.0466 281.0641 15.08852706100172,6917.842,95.437,540.41,539.003,0.0
50823.0,STARLINK-3334,PAYLOAD,2023-10-20 22:02:03,15.08852026,9.92e-05,53.2147,118.1649,77.1335,282.9768,0.00024642,3.637e-05,0.0,0 STARLINK-3334,1 50823U 22001W   23293.91809478  .00003637  00000-0  24642-3 0  9998,2 50823  53.2147 118.1649 0000992  77.1335 282.9768 15.08852026 98958,6917.844,95.437,540.395,539.022,0.0
50823.0,STARLINK-3334,PAYLOAD,2023-10-21 12:20:32,15.0883928,0.0001643,53.2136,115.4854,96.4583,263.6596,2.2134e-05,6.4e-07,0.0,0 STARLINK-3334,1 50823U 22001W   23294.51425932  .00000064  00000-0  22134-4 0  9990,2 50823  53.2136 115.4854 0001643  96.4583 263.6596 15.08839280100324,6917.883,95.438,540.884,538.611,0.0
50823.0,STARLINK-3334,PAYLOAD,2023-10-21 21:52:50,15.08841297,0.0001373,53.2143,113.7029,90.1246,269.9904,2.4923e-05,1.09e-06,0.0,0 STARLINK-3334,1 50823U 22001W   23294.91169877  .00000109  00000-0  24923-4 0  9995,2 50823  53.2143 113.7029 0001373  90.1246 269.9904 15.08841297 99100,6917.876,95.437,540.691,538.792,0.0
50823.0,STARLINK-3334,PAYLOAD,2023-10-22 18:32:52,15.08832545,0.0001351,53.2162,109.8359,89.2791,270.8356,-5.1451e-05,-1.106e-05,0.0,0 STARLINK-3334,1 50823U 22001W   23295.77282946 -.00001106  00000-0 -51451-4 0  9999,2 50823  53.2162 109.8359 0001351  89.2791 270.8356 15.08832545100519,6917.903,95.438,540.703,538.834,0.0
50823.0,STARLINK-3334,PAYLOAD,2023-10-23 19:59:02,15.08841455,0.0001225,53.2162,105.0798,90.7653,269.3479,0.00011296,1.51e-05,0.0,0 STARLINK-3334,1 50823U 22001W   23296.83266426  .00001510  00000-0  11296-3 0  9991,2 50823  53.2162 105.0798 0001225  90.7653 269.3479 15.08841455100674,6917.876,95.437,540.588,538.894,0.0
50823.0,STARLINK-3334,PAYLOAD,2023-10-23 21:34:25,15.08841507,0.0001251,53.2162,104.7822,92.9256,267.1879,0.00013654,1.886e-05,0.0,0 STARLINK-3334,1 50823U 22001W   23296.89890386  .00001886  00000-0  13654-3 0  9991,2 50823  53.2162 104.7822 0001251  92.9256 267.1879 15.08841507 99406,6917.876,95.437,540.606,538.875,0.0
50823.0,STARLINK-3334,PAYLOAD,2023-10-24 11:52:54,15.08831606,0.0001244,53.2165,102.1055,91.6713,268.4422,9.7289e-05,1.26e-05,0.0,0 STARLINK-3334,1 50823U 22001W   23297.49507331  .00001260  00000-0  97289-4 0  9996,2 50823  53.2165 102.1055 0001244  91.6713 268.4422 15.08831606100775,6917.906,95.438,540.632,538.91,0.0
50823.0,STARLINK-3334,PAYLOAD,2023-10-24 13:28:17,15.08833274,0.0001237,53.2165,101.8083,91.6601,268.4533,0.00010869,1.442e-05,0.0,0 STARLINK-3334,1 50823U 22001W   23297.56131202  .00001442  00000-0  10869-3 0  9994,2 50823  53.2165 101.8083 0001237  91.6601 268.4533 15.08833274 99504,6917.901,95.438,540.622,538.91,0.0
50823.0,STARLINK-3334,PAYLOAD,2023-10-25 14:54:27,15.08844103,0.0001205,53.2166,97.0508,90.0378,270.0753,9.1707e-05,1.172e-05,0.0,0 STARLINK-3334,1 50823U 22001W   23298.62114878  .00001172  00000-0  91707-4 0  9993,2 50823  53.2166  97.0508 0001205  90.0378 270.0753 15.08844103100949,6917.868,95.437,540.566,538.899,0.0
50823.0,STARLINK-3334,PAYLOAD,2023-10-25 21:15:59,15.08849759,0.0001225,53.2168,95.8611,91.7234,268.3898,0.00013987,1.939e-05,0.0,0 STARLINK-3334,1 50823U 22001W   23298.88610384  .00001939  00000-0  13987-3 0  9998,2 50823  53.2168  95.8611 0001225  91.7234 268.3898 15.08849759 99706,6917.851,95.437,540.563,538.868,0.0
50823.0,STARLINK-3334,PAYLOAD,2023-10-26 03:37:33,15.08821393,0.0001371,53.2168,94.6718,88.345,271.77,0.00050277,7.719e-05,0.0,0 STARLINK-3334,1 50823U 22001W   23299.15108090  .00007719  00000-0  50277-3 0  9990,2 50823  53.2168  94.6718 0001371  88.3450 271.7700 15.08821393101028,6917.937,95.439,540.751,538.854,0.0
50823.0,STARLINK-3334,PAYLOAD,2023-10-26 11:34:28,15.08839065,0.0001272,53.2157,93.1849,84.1501,275.9637,7.8701e-05,9.65e-06,0.0,0 STARLINK-3334,1 50823U 22001W   23299.48226905  .00000965  00000-0  78701-4 0  9991,2 50823  53.2157  93.1849 0001272  84.1501 275.9637 15.08839065101071,6917.883,95.438,540.628,538.868,0.0
50823.0,STARLINK-3334,PAYLOAD,2023-10-26 14:45:14,15.08842148,0.0001323,53.2159,92.59,85.2888,274.8255,0.00011284,1.509e-05,0.0,0 STARLINK-3334,1 50823U 22001W   23299.61474801  .00001509  00000-0  11284-3 0  9993,2 50823  53.2159  92.5900 0001323  85.2888 274.8255 15.08842148 99819,6917.874,95.437,540.654,538.824,0.0
50823.0,STARLINK-3334,PAYLOAD,2023-10-26 19:31:23,15.08849294,0.0001331,53.216,91.698,84.4783,275.6361,0.00018158,2.604e-05,0.0,0 STARLINK-3334,1 50823U 22001W   23299.81346443  .00002604  00000-0  18158-3 0  9999,2 50823  53.2160  91.6980 0001331  84.4783 275.6361 15.08849294 99842,6917.852,95.437,540.638,538.796,0.0
50823.0,STARLINK-3334,PAYLOAD,2023-10-26 22:42:09,15.08851163,0.0001297,53.2159,91.1031,84.0364,276.0775,0.00020766,3.02e-05,0.0,0 STARLINK-3334,1 50823U 22001W   23299.94594327  .00003020  00000-0  20766-3 0  9990,2 50823  53.2159  91.1031 0001297  84.0364 276.0775 15.08851163101143,6917.846,95.437,540.609,538.814,0.0
50823.0,STARLINK-3334,PAYLOAD,2023-10-27 09:49:51,15.08847163,0.0001388,53.2154,89.0217,84.4414,275.6736,0.00021676,3.164e-05,0.0,0 STARLINK-3334,1 50823U 22001W   23300.40962535  .00003164  00000-0  21676-3 0  9994,2 50823  53.2154  89.0217 0001388  84.4414 275.6736 15.08847163101216,6917.858,95.437,540.684,538.763,0.0
